name,address,imageUrl,lat,lng
새살맛집 곤드레밥,부산광역시 수영구 황령산로 28,,35.148799,129.108282
자갈치횟집,부산광역시 수영구 수영로702번길 28,,35.166556,129.117023
갈삼구이,부산광역시 수영구 민락수변로 7 ,,35.155196,129.124096
둔내막국수,부산광역시 수영구 수영로725번길 62-3,,35.168499,129.115245
고향카츠,부산광역시 수영구 수영로510번길 43,,35.150906,129.114039
국이네낙지볶음,부산광역시 수영구 연수로 410,,35.16798,129.1138
금가면옥,부산광역시 수영구 무학로 25-1,,35.161828,129.116705
우성식당,부산광역시 수영구 광안동 559-4,,35.160252,129.112539
시골통돼지볶음,부산광역시 수영구 남천제1동 35-6,,35.148274,129.111587
꽃물 한식당,부산광역시 수영구 황령산로8번길 17,,35.148232,129.109538
농장갈비,부산광역시 수영구 무학로9번길 16,,35.162527,129.115164
언양불고기 부산집,부산광역시 수영구 남천바다로 32,,35.147882,129.113582
민락쌈밥,부산광역시 수영구 민락동 감포로8번길 7,,35.159336,129.121112
정원집,부산광역시 수영구 수영로666번길 17,,35.165151,129.115726
친정엄마아라수라간,부산광역시 수영구 남천동로108번길,,35.145852,129.112271
진미언양불고기,부산광역시 수영구 남천바다로33번길 7,,35.148869,129.114143
다리집,부산광역시 수영구 남천바다로10번길 70,,35.146539,129.110711
신창국밥,부산광역시 수영구 남천동로24번길 42,,35.1405,129.11021
박가네언양불고기,부산광역시 수영구 광안제2동 수영로540번길 74,,35.15308,129.11606
부산횟집,부산광역시 수영구 민락수변로 29,,35.153171,129.124703
꽃돼지국밥,부산광역시 수영구 민락로 35,,35.158166,129.12127
우성삼계탕,부산광역시 수영구 광서로10번길 68,,35.167178,129.114121
영남해장국,부산광역시 수영구 황령대로489번길 19,,35.139111,129.108089
아미양곱창,부산광역시 수영구 황령대로481번길 56,,35.139707,129.108098
옥계관,부산광역시 수영구 민락로19번길 22,,35.156446,129.12139
당그레양곱창구이,부산광역시 수영구 광남로142번길 2,,35.153727,129.117482
요이쿠마,부산광역시 수영구 광안해변로307번길 20,,35.157975,129.126606
신세계,부산광역시 수영구 무학로10번길 27 1층,,35.160529,129.114712
규니꾸,부산광역시 수영구 민락동 181-223,,35.153176,129.124697
다솥맛집,부산광역시 해운대구 중제1동 948-5,,35.159726,129.170598
초필살돼지구이,부산광역시 해운대구 마린시티3로 23,,35.156294,129.146971
정문 추어탕,부산광역시 해운대구 해운대로483번길 2-7,,35.162776,129.1464
훈이네김밥,부산광역시 해운대구 해운대해변로209번가길 1,,35.159913,129.154082
051우리동네,부산광역시 해운대구 해운대해변로209번나길 7,,35.160497,129.154349
평안도족발,부산광역시 해운대구 달맞이길 14,,35.16194,129.166394
거북이금고,부산광역시 해운대구 중동1로 32,,35.162528,129.16274
참새방앗간,부산광역시 해운대구 중제1동 1015-6,,35.157706,129.172412
소막골,부산광역시 해운대구 좌제1동 1466-3,,35.171418,129.176456
만족,부산광역시 해운대구 좌동로91번길 21,,35.173065,129.174163
피제리아라르도,부산광역시 해운대구 좌동순환로433번길 38-37,,35.161776,129.178573
디젤 앤 카멜리아스,부산광역시 해운대구 우동1로20번길 11,,35.16395,129.157265
진미횟집,부산광역시 수영구 광안해변로 207,,35.15264,129.117516
수정궁횟집,부산광역시 수영구 민락수변로 25,,35.153552,129.124554
하모횟집,부산광역시 수영구 광안해변로295번길 4-19,,35.156576,129.125463
강변횟집,부산광역시 수영구 민락동 181-70,,35.155718,129.124766
수림횟집,부산광역시 해운대구 해운대해변로221번길 15,,35.159806,129.155999
동백섬횟집,부산광역시 해운대구 해운대해변로209번나길 17,,35.160409,129.154685
싱싱뽈락회,부산광역시 해운대구 우동 번지 1호 648-5,,35.159703,129.157154
해운대다찌,부산광역시 해운대구 해운대해변로209번길 22,,35.160112,129.154068
삼삼횟집,부산광역시 수영구 광안해변로278번길 22,,35.154712,129.12469
